NORAD_CAT_ID,OBJECT_NAME,OBJECT_TYPE,EPOCH,MEAN_MOTION,ECCENTRICITY,INCLINATION,RA_OF_ASC_NODE,ARG_OF_PERICENTER,MEAN_ANOMALY,BSTAR,MEAN_MOTION_DOT,MEAN_MOTION_DDOT,TLE_LINE0,TLE_LINE1,TLE_LINE2,SEMIMAJOR_AXIS,PERIOD,APOGEE,PERIGEE,DECAYED
52502.0,STARLINK-3912,PAYLOAD,2024-02-06 19:48:05,15.08845819,0.0001287,53.2157,219.2939,90.5642,269.5498,0.00010211,1.338e-05,0.0,0 STARLINK-3912,1 52502U 22049BD  24037.82506023  .00001338  00000-0  10211-3 0  9996,2 52502  53.2157 219.2939 0001287  90.5642 269.5498 15.08845819 97679,6917.863,95.437,540.618,538.837,0.0
52502.0,STARLINK-3912,PAYLOAD,2024-02-06 21:23:28,15.08848062,0.0001281,53.2154,218.9962,90.4308,269.6831,0.00011987,1.621e-05,0.0,0 STARLINK-3912,1 52502U 22049BD  24037.89129845  .00001621  00000-0  11987-3 0  9992,2 52502  53.2154 218.9962 0001281  90.4308 269.6831 15.08848062 97529,6917.856,95.437,540.607,538.835,0.0
52502.0,STARLINK-3912,PAYLOAD,2024-02-07 18:03:29,15.08836117,0.0001176,53.2155,215.1276,96.8327,263.2799,7.6147e-05,9.24e-06,0.0,0 STARLINK-3912,1 52502U 22049BD  24038.75242622  .00000924  00000-0  76147-4 0  9992,2 52502  53.2155 215.1276 0001176  96.8327 263.2799 15.08836117 97814,6917.892,95.438,540.571,538.944,0.0
52502.0,STARLINK-3912,PAYLOAD,2024-02-07 21:14:15,15.08843832,0.0001276,53.215,214.5332,98.0504,262.0633,1.1297e-05,-1.08e-06,0.0,0 STARLINK-3912,1 52502U 22049BD  24038.88490253 -.00000108  00000-0  11297-4 0  9991,2 52502  53.2150 214.5332 0001276  98.0504 262.0633 15.08843832 97677,6917.869,95.437,540.616,538.851,0.0
52502.0,STARLINK-3912,PAYLOAD,2024-02-08 14:43:30,15.08828843,0.0001258,53.2153,211.2611,102.3297,257.7836,0.00016999,2.418e-05,0.0,0 STARLINK-3912,1 52502U 22049BD  24039.61354534  .00002418  00000-0  16999-3 0  9992,2 52502  53.2153 211.2611 0001258 102.3297 257.7836 15.08828843 97785,6917.914,95.438,540.65,538.909,0.0
52502.0,STARLINK-3912,PAYLOAD,2024-02-08 17:54:16,15.08830707,0.0001308,53.2162,210.6659,106.8664,253.2472,0.00017699,2.529e-05,0.0,0 STARLINK-3912,1 52502U 22049BD  24039.74602436  .00002529  00000-0  17699-3 0  9994,2 52502  53.2162 210.6659 0001308 106.8664 253.2472 15.08830707 97805,6917.909,95.438,540.679,538.869,0.0
52502.0,STARLINK-3912,PAYLOAD,2024-02-09 11:23:31,15.08837794,0.0001361,53.2162,207.3953,100.7592,259.3554,4.4337e-05,4.18e-06,0.0,0 STARLINK-3912,1 52502U 22049BD  24040.47466549  .00000418  00000-0  44337-4 0  9994,2 52502  53.2162 207.3953 0001361 100.7592 259.3554 15.08837794 98078,6917.887,95.438,540.694,538.811,0.0
52502.0,STARLINK-3912,PAYLOAD,2024-02-09 14:34:17,15.08840704,0.0001338,53.2159,206.8012,98.2845,261.8299,6.4392e-05,7.37e-06,0.0,0 STARLINK-3912,1 52502U 22049BD  24040.60714340  .00000737  00000-0  64392-4 0  9991,2 52502  53.2159 206.8012 0001338  98.2845 261.8299 15.08840704 97933,6917.878,95.438,540.669,538.818,0.0
52502.0,STARLINK-3912,PAYLOAD,2024-02-10 14:25:04,15.0883691,0.0001357,53.2166,202.3438,88.1113,272.0034,4.4934e-05,4.27e-06,0.0,0 STARLINK-3912,1 52502U 22049BD  24041.60074981  .00000427  00000-0  44934-4 0  9998,2 52502  53.2166 202.3438 0001357  88.1113 272.0034 15.08836910 98083,6917.89,95.438,540.694,538.816,0.0
52502.0,STARLINK-3912,PAYLOAD,2024-02-10 17:35:50,15.08839279,0.0001472,53.2175,201.7534,102.3891,257.7266,4.8007e-05,4.76e-06,0.0,0 STARLINK-3912,1 52502U 22049BD  24041.73322818  .00000476  00000-0  48007-4 0  9996,2 52502  53.2175 201.7534 0001472 102.3891 257.7266 15.08839279 98261,6917.883,95.438,540.766,538.729,0.0
52502.0,STARLINK-3912,PAYLOAD,2024-02-11 14:15:52,15.08812254,0.0001632,53.2167,197.879,94.1509,265.967,0.00028956,4.32e-05,0.0,0 STARLINK-3912,1 52502U 22049BD  24042.59435941  .00004320  00000-0  28956-3 0  9995,2 52502  53.2167 197.8790 0001632  94.1509 265.9670 15.08812254 98234,6917.965,95.439,540.959,538.701,0.0
52502.0,STARLINK-3912,PAYLOAD,2024-02-11 15:51:16,15.08770688,0.0001806,53.2169,197.582,87.53,272.5899,0.0007998,0.0001244,0.0,0 STARLINK-3912,1 52502U 22049BD  24042.66061109  .00012440  00000-0  79980-3 0  9999,2 52502  53.2169 197.5820 0001806  87.5300 272.5899 15.08770688 98405,6918.092,95.442,541.207,538.708,0.0
52502.0,STARLINK-3912,PAYLOAD,2024-02-12 09:20:30,15.08829294,0.0001521,53.2169,194.3107,100.7084,259.4079,3.6694e-06,-2.3e-06,0.0,0 STARLINK-3912,1 52502U 22049BD  24043.38924321 -.00000230  00000-0  36694-5 0  9995,2 52502  53.2169 194.3107 0001521 100.7084 259.4079 15.08829294 98513,6917.913,95.438,540.83,538.726,0.0
52502.0,STARLINK-3912,PAYLOAD,2024-02-12 14:06:39,15.08841552,0.0001308,53.2175,193.4247,90.6964,269.4178,9.3897e-05,1.207e-05,0.0,0 STARLINK-3912,1 52502U 22049BD  24043.58795295  .00001207  00000-0  93897-4 0  9994,2 52502  53.2175 193.4247 0001308  90.6964 269.4178 15.08841552 98389,6917.876,95.437,540.646,538.836,0.0
52502.0,STARLINK-3912,PAYLOAD,2024-02-12 18:52:47,15.08853108,0.0001376,53.2166,192.5292,91.1799,268.9351,0.00017571,2.511e-05,0.0,0 STARLINK-3912,1 52502U 22049BD  24043.78666328  .00002511  00000-0  17571-3 0  9993,2 52502  53.2166 192.5292 0001376  91.1799 268.9351 15.08853108 98574,6917.84,95.437,540.657,538.753,0.0
52502.0,STARLINK-3912,PAYLOAD,2024-02-12 20:28:10,15.08853168,0.0001422,53.2164,192.2316,87.3283,272.7872,0.00017266,2.462e-05,0.0,0 STARLINK-3912,1 52502U 22049BD  24043.85290254  .00002462  00000-0  17266-3 0  9998,2 52502  53.2164 192.2316 0001422  87.3283 272.7872 15.08853168 98424,6917.84,95.437,540.689,538.721,0.0
52502.0,STARLINK-3912,PAYLOAD,2024-02-13 02:49:44,15.08838123,0.0001155,53.2167,191.0389,86.8188,273.2936,7.3213e-05,8.77e-06,0.0,0 STARLINK-3912,1 52502U 22049BD  24044.11787330  .00000877  00000-0  73213-4 0  9997,2 52502  53.2167 191.0389 0001155  86.8188 273.2936 15.08838123 98628,6917.886,95.438,540.55,538.952,0.0
52502.0,STARLINK-3912,PAYLOAD,2024-02-13 13:57:26,15.08834682,0.000146,53.2173,188.9589,74.6542,285.4611,8.1667e-05,1.012e-05,0.0,0 STARLINK-3912,1 52502U 22049BD  24044.58155911  .00001012  00000-0  81667-4 0  9996,2 52502  53.2173 188.9589 0001460  74.6542 285.4611 15.08834682 98531,6917.897,95.438,540.772,538.752,0.0
52502.0,STARLINK-3912,PAYLOAD,2024-02-13 18:43:35,15.08838819,0.0002021,53.2185,188.0671,109.3755,250.7456,0.0001621,2.293e-05,0.0,0 STARLINK-3912,1 52502U 22049BD  24044.78027446  .00002293  00000-0  16210-3 0  9992,2 52502  53.2185 188.0671 0002021 109.3755 250.7456 15.08838819 98564,6917.884,95.438,541.147,538.351,0.0
52502.0,STARLINK-3912,PAYLOAD,2024-02-14 09:02:04,15.08846936,0.0001533,53.2163,185.3951,76.2008,283.9154,-5.1306e-06,-3.7e-06,0.0,0 STARLINK-3912,1 52502U 22049BD  24045.37643554 -.00000370  00000-0 -51306-5 0  9995,2 52502  53.2163 185.3951 0001533  76.2008 283.9154 15.08846936 98811,6917.859,95.437,540.785,538.664,0.0
52502.0,STARLINK-3912,PAYLOAD,2024-02-14 15:23:36,15.08848956,0.0001134,53.2144,184.204,89.0228,271.0894,8.7746e-06,-1.48e-06,0.0,0 STARLINK-3912,1 52502U 22049BD  24045.64139099 -.00000148  00000-0  87746-5 0  9998,2 52502  53.2144 184.2040 0001134  89.0228 271.0894 15.08848956 98699,6917.853,95.437,540.502,538.934,0.0
52502.0,STARLINK-3912,PAYLOAD,2024-02-14 18:34:21,15.08858993,0.0001379,53.2157,183.6079,92.9468,267.1682,5.5092e-05,5.89e-06,0.0,0 STARLINK-3912,1 52502U 22049BD  24045.77386284  .00000589  00000-0  55092-4 0  9998,2 52502  53.2157 183.6079 0001379  92.9468 267.1682 15.08858993 98871,6917.822,95.436,540.641,538.733,0.0
52502.0,STARLINK-3912,PAYLOAD,2024-02-15 02:31:18,15.08844027,0.0001778,53.2166,182.1214,85.8513,274.2682,-0.00010623,-1.979e-05,0.0,0 STARLINK-3912,1 52502U 22049BD  24046.10507669 -.00001979  00000-0 -10623-3 0  9994,2 52502  53.2166 182.1214 0001778  85.8513 274.2682 15.08844027 98929,6917.868,95.437,540.963,538.503,0.0
52502.0,STARLINK-3912,PAYLOAD,2024-02-15 08:52:51,15.08833542,0.0001893,53.2183,180.9316,87.7938,272.3271,3.502e-05,2.69e-06,0.0,0 STARLINK-3912,1 52502U 22049BD  24046.37004145  .00000269  00000-0  35020-4 0  9992,2 52502  53.2183 180.9316 0001893  87.7938 272.3271 15.08833542 98964,6917.9,95.438,541.075,538.456,0.0
52502.0,STARLINK-3912,PAYLOAD,2024-02-15 13:39:00,15.08835991,0.0001722,53.2167,180.0419,82.2987,277.82,4.6756e-05,4.56e-06,0.0,0 STARLINK-3912,1 52502U 22049BD  24046.56875930  .00000456  00000-0  46756-4 0  9997,2 52502  53.2167 180.0419 0001722  82.2987 277.8200 15.08835991 98834,6917.893,95.438,540.949,538.566,0.0
52502.0,STARLINK-3912,PAYLOAD,2024-02-15 15:14:23,15.08842264,0.0001472,53.2167,179.7447,86.8538,273.2623,-3.597e-05,-8.6e-06,0.0,0 STARLINK-3912,1 52502U 22049BD  24046.63499746 -.00000860  00000-0 -35970-4 0  9999,2 52502  53.2167 179.7447 0001472  86.8538 273.2623 15.08842264 98845,6917.873,95.437,540.757,538.72,0.0
52502.0,STARLINK-3912,PAYLOAD,2024-02-16 02:22:05,15.08845324,0.0001457,53.2167,177.6623,88.2953,271.8206,-8.9085e-06,-4.3e-06,0.0,0 STARLINK-3912,1 52502U 22049BD  24047.09867339 -.00000430  00000-0 -89085-5 0  9997,2 52502  53.2167 177.6623 0001457  88.2953 271.8206 15.08845324 99075,6917.864,95.437,540.737,538.721,0.0
52502.0,STARLINK-3912,PAYLOAD,2024-02-16 15:05:10,15.08843802,0.0001396,53.2169,175.2831,91.6975,268.4177,0.00015433,2.169e-05,0.0,0 STARLINK-3912,1 52502U 22049BD  24047.62859052  .00002169  00000-0  15433-3 0  9992,2 52502  53.2169 175.2831 0001396  91.6975 268.4177 15.08843802 98994,6917.869,95.437,540.7,538.768,0.0
52502.0,STARLINK-3912,PAYLOAD,2024-02-16 18:15:56,15.08853704,0.0001528,53.2172,174.6878,97.6516,262.465,7.9585e-05,9.79e-06,0.0,0 STARLINK-3912,1 52502U 22049BD  24047.76106511  .00000979  00000-0  79585-4 0  9998,2 52502  53.2172 174.6878 0001528  97.6516 262.4650 15.08853704 99179,6917.839,95.437,540.761,538.646,0.0
52502.0,STARLINK-3912,PAYLOAD,2024-02-17 11:45:11,15.08833049,0.00015,53.2171,171.4182,91.108,269.0084,6.4181e-05,7.33e-06,0.0,0 STARLINK-3912,1 52502U 22049BD  24048.48972190  .00000733  00000-0  64181-4 0  9996,2 52502  53.2171 171.4182 0001500  91.1080 269.0084 15.08833049 99282,6917.902,95.438,540.804,538.729,0.0
